KUIPER-00221            
1 67147U 25301Q   26008.18950363  .00017175  00000+0  48847-3 0  9991
2 67147  51.8719 357.5210 0005005 151.2333 208.8930 15.36232510  4438
KUIPER-00232            
1 67148U 25301R   26008.17518967  .00016858  00000+0  46673-3 0  9993
2 67148  51.8742 357.4265 0002293  82.8872 277.2376 15.37094744  4437
KUIPER-00241            
1 67149U 25301S   26008.11684932  .00015595  00000+0  43811-3 0  9992
2 67149  51.8740 357.7830 0002852 126.9976 233.1272 15.36699650  4750
KUIPER-00245            
1 67150U 25301T   26008.16668980 -.00908507  00000+0 -32488-1 0  9996
2 67150  51.8751 357.7153 0007228 165.2615  16.9484 15.31053333  3916
KUIPER-00246            
1 67151U 25301U   26008.12109427  .00027068  00000+0  75750-3 0  9992
2 67151  51.8736 357.8130 0003988 149.2011 210.9210 15.36446959  4444
KUIPER-00247            
1 67152U 25301V   26008.15036441  .00018608  00000+0  55864-3 0  9995
2 67152  51.8650 357.9917 0011171 193.0853 166.9844 15.34425216  4420
KUIPER-00248            
1 67153U 25301W   26008.13956138  .00017862  00000+0  52455-3 0  9992
2 67153  51.8689 357.9284 0008407 177.9165 182.1857 15.35176499  4594
KUIPER-00249            
1 67154U 25301X   26008.13693163  .00019738  00000+0  57185-3 0  9998
2 67154  51.8663 357.9092 0008452 176.7493 183.3549 15.35532069  4427
KUIPER-00250            
1 67155U 25301Y   26008.19436200  .00027304  00000+0  77339-3 0  9993
2 67155  51.8720 357.5526 0006686 166.1460 193.9710 15.36052080  4466
KUIPER-00251            
1 67156U 25301Z   26008.13899946  .00014508  00000+0  42875-3 0  9997
2 67156  51.8676 357.9233 0008994 174.6247 185.4836 15.35141109  4619
KUIPER-00252            
1 67157U 25301AA  26008.14600656  .00014445  00000+0  43133-3 0  9995
2 67157  51.8673 357.9671 0009797 187.1958 172.8888 15.34810437  4425
KUIPER-00261            
1 67158U 25301AB  26008.19352515  .00016634  00000+0  47641-3 0  9999
2 67158  51.8705 357.5459 0006846 164.6808 195.4387 15.36028425  4434
